{"type": "FeatureCollection", "features": [ {"type": "Feature", "properties": {"norad_id": 37834, "name": "INTELSAT 18 (IS-18)", "group": "intelsat", "lat": -0.009506857925629842, "lon": 148.27489616297518, "alt_km": 35789.06438939059, "timestamp": "2025-12-05T16:54:14.337304+00:00", "meta": {"OBJECT_NAME": "INTELSAT 18 (IS-18)", "OBJECT_ID": "2011-056A", "EPOCH": "2025-12-04T19:43:08.401728", "MEAN_MOTION": 1.00271074, "ECCENTRICITY": 0.0002114, "INCLINATION": 0.0126, "RA_OF_ASC_NODE": 297.1344, "ARG_OF_PERICENTER": 319.7042, "MEAN_ANOMALY": 292.832, "EPHEMERIS_TYPE": 0, "CLASSIFICATION_TYPE": "U", "NORAD_CAT_ID": 37834, "ELEMENT_SET_NO": 999, "REV_AT_EPOCH": 5186, "BSTAR": 0, "MEAN_MOTION_DOT": 6.7e-07, "MEAN_MOTION_DDOT": 0}, "tle": {"line1": "1 37834U 11056A   25338.82162502  .00000067  00000+0  00000+0 0  9996", "line2": "2 37834   0.0126 297.1344 0002114 319.7042 292.8320  1.00271074 51868"}}, "geometry": {"type": "Point", "coordinates": [148.27489616297518, -0.009506857925629842]}}, {"type": "Feature", "properties": {"norad_id": 38098, "name": "INTELSAT 22 (IS-22)", "group": "intelsat", "lat": 0.0229085281629755, "lon": 40.418806205960486, "alt_km": 35791.691250482836, "timestamp": "2025-12-05T16:54:14.337314+00:00", "meta": {"OBJECT_NAME": "INTELSAT 22 (IS-22)", "OBJECT_ID": "2012-011A", "EPOCH": "2025-12-05T02:03:18.241920", "MEAN_MOTION": 1.00271022, "ECCENTRICITY": 0.00016952, "INCLINATION": 0.0065, "RA_OF_ASC_NODE": 4.2211, "ARG_OF_PERICENTER": 257.4518, "MEAN_ANOMALY": 275.4067, "EPHEMERIS_TYPE": 0, "CLASSIFICATION_TYPE": "U", "NORAD_CAT_ID": 38098, "ELEMENT_SET_NO": 999, "REV_AT_EPOCH": 524, "BSTAR": 0, "MEAN_MOTION_DOT": -4.6e-07, "MEAN_MOTION_DDOT": 0}, "tle": {"line1": "1 38098U 12011A   25339.08562780 -.00000046  00000+0  00000+0 0  9990", "line2": "2 38098   0.0065   4.2211 0001695 257.4518 275.4067  1.00271022  5241"}}, "geometry": {"type": "Point", "coordinates": [40.418806205960486, 0.0229085281629755]}}, {"type": "Feature", "properties": {"norad_id": 38356, "name": "INTELSAT 19 (IS-19)", "group": "intelsat", "lat": 0.010396655254861822, "lon": 134.2732354799275, "alt_km": 35795.16459790595, "timestamp": "2025-12-05T16:54:14.337325+00:00", "meta": {"OBJECT_NAME": "INTELSAT 19 (IS-19)", "OBJECT_ID": "2012-030A", "EPOCH": "2025-12-04T19:39:08.785152", "MEAN_MOTION": 1.0026986, "ECCENTRICITY": 0.000349, "INCLINATION": 0.011, "RA_OF_ASC_NODE": 331.3941, "ARG_OF_PERICENTER": 288.2851, "MEAN_ANOMALY": 275.0025, "EPHEMERIS_TYPE": 0, "CLASSIFICATION_TYPE": "U", "NORAD_CAT_ID": 38356, "ELEMENT_SET_NO": 999, "REV_AT_EPOCH": 4850, "BSTAR": 0, "MEAN_MOTION_DOT": -4.3e-07, "MEAN_MOTION_DDOT": 0}, "tle": {"line1": "1 38356U 12030A   25338.81885168 -.00000043  00000+0  00000+0 0  9993", "line2": "2 38356   0.0110 331.3941 0003490 288.2851 275.0025  1.00269860 48503"}}, "geometry": {"type": "Point", "coordinates": [134.2732354799275, 0.010396655254861822]}}, {"type": "Feature", "properties": {"norad_id": 38740, "name": "INTELSAT 20 (IS-20)", "group": "intelsat", "lat": 0.030238794796331403, "lon": 36.80181531937295, "alt_km": 35795.70237308982, "timestamp": "2025-12-05T16:54:14.337336+00:00", "meta": {"OBJECT_NAME": "INTELSAT 20 (IS-20)", "OBJECT_ID": "2012-043A", "EPOCH": "2025-12-05T04:09:38.711808", "MEAN_MOTION": 1.00278846, "ECCENTRICITY": 0.00029413, "INCLINATION": 0.0145, "RA_OF_ASC_NODE": 355.6883, "ARG_OF_PERICENTER": 200.7135, "MEAN_ANOMALY": 8.7419, "EPHEMERIS_TYPE": 0, "CLASSIFICATION_TYPE": "U", "NORAD_CAT_ID": 38740, "ELEMENT_SET_NO": 999, "REV_AT_EPOCH": 4880, "BSTAR": 0, "MEAN_MOTION_DOT": 0, "MEAN_MOTION_DDOT": 0}, "tle": {"line1": "1 38740U 12043A   25339.17336472  .00000000  00000+0  00000+0 0  9995", "line2": "2 38740   0.0145 355.6883 0002941 200.7135   8.7419  1.00278846 48801"}}, "geometry": {"type": "Point", "coordinates": [36.80181531937295, 0.030238794796331403]}}, {"type": "Feature", "properties": {"norad_id": 38749, "name": "INTELSAT 21 (IS-21)", "group": "intelsat", "lat": -0.02537552511165275, "lon": -89.68451888810688, "alt_km": 35777.20019289406, "timestamp": "2025-12-05T16:54:14.337347+00:00", "meta": {"OBJECT_NAME": "INTELSAT 21 (IS-21)", "OBJECT_ID": "2012-045A", "EPOCH": "2025-12-05T03:08:56.950080", "MEAN_MOTION": 1.0027177, "ECCENTRICITY": 0.00022929, "INCLINATION": 0.0021, "RA_OF_ASC_NODE": 349.3902, "ARG_OF_PERICENTER": 258.0279, "MEAN_ANOMALY": 176.0157, "EPHEMERIS_TYPE": 0, "CLASSIFICATION_TYPE": "U", "NORAD_CAT_ID": 38749, "ELEMENT_SET_NO": 999, "REV_AT_EPOCH": 4857, "BSTAR": 0, "MEAN_MOTION_DOT": -2.72e-06, "MEAN_MOTION_DDOT": 0}, "tle": {"line1": "1 38749U 12045A   25339.13121470 -.00000272  00000+0  00000+0 0  9994", "line2": "2 38749   0.0021 349.3902 0002292 258.0279 176.0157  1.00271770 48570"}}, "geometry": {"type": "Point", "coordinates": [-89.68451888810688, -0.02537552511165275]}}, {"type": "Feature", "properties": {"norad_id": 38867, "name": "INTELSAT 23 (IS-23)", "group": "intelsat", "lat": -0.023081244289142298, "lon": -84.69848606761462, "alt_km": 35782.46252029196, "timestamp": "2025-12-05T16:54:14.337358+00:00", "meta": {"OBJECT_NAME": "INTELSAT 23 (IS-23)", "OBJECT_ID": "2012-057A", "EPOCH": "2025-12-05T03:10:19.318656", "MEAN_MOTION": 1.00269316, "ECCENTRICITY": 0.00017305, "INCLINATION": 0.0481, "RA_OF_ASC_NODE": 104.7463, "ARG_OF_PERICENTER": 117.052, "MEAN_ANOMALY": 206.9649, "EPHEMERIS_TYPE": 0, "CLASSIFICATION_TYPE": "U", "NORAD_CAT_ID": 38867, "ELEMENT_SET_NO": 999, "REV_AT_EPOCH": 4800, "BSTAR": 0, "MEAN_MOTION_DOT": -2.72e-06, "MEAN_MOTION_DDOT": 0}, "tle": {"line1": "1 38867U 12057A   25339.13216804 -.00000272  00000+0  00000+0 0  9994", "line2": "2 38867   0.0481 104.7463 0001730 117.0520 206.9649  1.00269316 48005"}}, "geometry": {"type": "Point", "coordinates": [-84.69848606761462, -0.023081244289142298]}}, {"type": "Feature", "properties": {"norad_id": 39360, "name": "FM-6", "group": "intelsat", "lat": 0.002848371022042683, "lon": -147.82889583837166, "alt_km": 35776.609557845484, "timestamp": "2025-12-05T16:54:14.337369+00:00", "meta": {"OBJECT_NAME": "FM-6", "OBJECT_ID": "2013-058A", "EPOCH": "2025-12-04T23:53:38.663232", "MEAN_MOTION": 1.00272109, "ECCENTRICITY": 0.0002861, "INCLINATION": 0.0056, "RA_OF_ASC_NODE": 82.7816, "ARG_OF_PERICENTER": 90.461, "MEAN_ANOMALY": 143.0754, "EPHEMERIS_TYPE": 0, "CLASSIFICATION_TYPE": "U", "NORAD_CAT_ID": 39360, "ELEMENT_SET_NO": 999, "REV_AT_EPOCH": 4412, "BSTAR": 0, "MEAN_MOTION_DOT": -4e-08, "MEAN_MOTION_DDOT": 0}, "tle": {"line1": "1 39360U 13058A   25338.99558638 -.00000004  00000+0  00000+0 0  9995", "line2": "2 39360   0.0056  82.7816 0002861  90.4610 143.0754  1.00272109 44120"}}, "geometry": {"type": "Point", "coordinates": [-147.82889583837166, 0.002848371022042683]}}, {"type": "Feature", "properties": {"norad_id": 40271, "name": "INTELSAT 30 (IS-30)", "group": "intelsat", "lat": -0.027706739128448152, "lon": -126.750768622591, "alt_km": 35790.53053010507, "timestamp": "2025-12-05T16:54:14.337380+00:00", "meta": {"OBJECT_NAME": "INTELSAT 30 (IS-30)", "OBJECT_ID": "2014-062A", "EPOCH": "2025-12-04T23:32:53.890656", "MEAN_MOTION": 1.0027017, "ECCENTRICITY": 0.0001087, "INCLINATION": 0.0152, "RA_OF_ASC_NODE": 18.8663, "ARG_OF_PERICENTER": 65.0892, "MEAN_ANOMALY": 248.2592, "EPHEMERIS_TYPE": 0, "CLASSIFICATION_TYPE": "U", "NORAD_CAT_ID": 40271, "ELEMENT_SET_NO": 999, "REV_AT_EPOCH": 483, "BSTAR": 0, "MEAN_MOTION_DOT": -1.38e-06, "MEAN_MOTION_DDOT": 0}, "tle": {"line1": "1 40271U 14062A   25338.98117929 -.00000138  00000+0  00000+0 0  9995", "line2": "2 40271   0.0152  18.8663 0001087  65.0892 248.2592  1.00270170  4837"}}, "geometry": {"type": "Point", "coordinates": [-126.750768622591, -0.027706739128448152]}}, {"type": "Feature", "properties": {"norad_id": 40333, "name": "DIRECTV 14", "group": "intelsat", "lat": -0.04249724363272475, "lon": -130.9121215935798, "alt_km": 35784.15956302756, "timestamp": "2025-12-05T16:54:14.337390+00:00", "meta": {"OBJECT_NAME": "DIRECTV 14", "OBJECT_ID": "2014-078B", "EPOCH": "2025-12-04T21:48:56.350656", "MEAN_MOTION": 1.0027084, "ECCENTRICITY": 5.995e-05, "INCLINATION": 0.0173, "RA_OF_ASC_NODE": 326.0418, "ARG_OF_PERICENTER": 234.0274, "MEAN_ANOMALY": 101.9249, "EPHEMERIS_TYPE": 0, "CLASSIFICATION_TYPE": "U", "NORAD_CAT_ID": 40333, "ELEMENT_SET_NO": 999, "REV_AT_EPOCH": 4009, "BSTAR": 0, "MEAN_MOTION_DOT": -1.12e-06, "MEAN_MOTION_DDOT": 0}, "tle": {"line1": "1 40333U 14078B   25338.90898554 -.00000112  00000+0  00000+0 0  9995", "line2": "2 40333   0.0173 326.0418 0000599 234.0274 101.9249  1.00270840 40096"}}, "geometry": {"type": "Point", "coordinates": [-130.9121215935798, -0.04249724363272475]}}, {"type": "Feature", "properties": {"norad_id": 40663, "name": "DIRECTV 15", "group": "intelsat", "lat": -0.006685461715172928, "lon": -134.5623257984581, "alt_km": 35784.52218574105, "timestamp": "2025-12-05T16:54:14.337400+00:00", "meta": {"OBJECT_NAME": "DIRECTV 15", "OBJECT_ID": "2015-026A", "EPOCH": "2025-12-05T04:26:38.705280", "MEAN_MOTION": 1.00272329, "ECCENTRICITY": 3.692e-05, "INCLINATION": 0.0404, "RA_OF_ASC_NODE": 83.3006, "ARG_OF_PERICENTER": 167.2939, "MEAN_ANOMALY": 147.4493, "EPHEMERIS_TYPE": 0, "CLASSIFICATION_TYPE": "U", "NORAD_CAT_ID": 40663, "ELEMENT_SET_NO": 999, "REV_AT_EPOCH": 3851, "BSTAR": 0, "MEAN_MOTION_DOT": -9.1e-07, "MEAN_MOTION_DDOT": 0}, "tle": {"line1": "1 40663U 15026A   25339.18517020 -.00000091  00000+0  00000+0 0  9998", "line2": "2 40663   0.0404  83.3006 0000369 167.2939 147.4493  1.00272329 38519"}}, "geometry": {"type": "Point", "coordinates": [-134.5623257984581, -0.006685461715172928]}}]}